NORAD_CAT_ID,OBJECT_NAME,OBJECT_TYPE,EPOCH,MEAN_MOTION,ECCENTRICITY,INCLINATION,RA_OF_ASC_NODE,ARG_OF_PERICENTER,MEAN_ANOMALY,BSTAR,MEAN_MOTION_DOT,MEAN_MOTION_DDOT,TLE_LINE0,TLE_LINE1,TLE_LINE2,SEMIMAJOR_AXIS,PERIOD,APOGEE,PERIGEE,DECAYED
52488.0,STARLINK-3892,PAYLOAD,2023-06-22 01:34:49,15.08839619,0.0001053,53.2154,190.6915,96.1168,263.9944,-9.9044e-06,-4.45e-06,0.0,0 STARLINK-3892,1 52488U 22049AP  23173.06585210 -.00000445  00000-0 -99044-5 0  9993,2 52488  53.2154 190.6915 0001053  96.1168 263.9944 15.08839619 62713,6917.882,95.438,540.475,539.018,0.0
52488.0,STARLINK-3892,PAYLOAD,2023-06-23 07:47:09,15.08838322,0.0001037,53.2158,185.0432,87.401,272.7101,1.1921e-05,-9.8e-07,0.0,0 STARLINK-3892,1 52488U 22049AP  23174.32441387 -.00000098  00000-0  11921-4 0  9999,2 52488  53.2158 185.0432 0001037  87.4010 272.7101 15.08838322 62904,6917.886,95.438,540.468,539.033,0.0
52488.0,STARLINK-3892,PAYLOAD,2023-06-24 17:10:15,15.08836148,0.0001028,53.2158,178.799,87.1373,272.9737,6.2451e-05,7.06e-06,0.0,0 STARLINK-3892,1 52488U 22049AP  23175.71545745  .00000706  00000-0  62451-4 0  9995,2 52488  53.2158 178.7990 0001028  87.1373 272.9737 15.08836148 63116,6917.892,95.438,540.468,539.046,0.0
52488.0,STARLINK-3892,PAYLOAD,2023-06-26 00:57:58,15.08838317,0.0001048,53.2157,172.8514,90.3711,269.7401,4.1238e-05,3.69e-06,0.0,0 STARLINK-3892,1 52488U 22049AP  23177.04025840  .00000369  00000-0  41238-4 0  9997,2 52488  53.2157 172.8514 0001048  90.3711 269.7401 15.08838317 63310,6917.886,95.438,540.476,539.026,0.0
52488.0,STARLINK-3892,PAYLOAD,2023-06-27 08:45:40,15.08841558,0.000107,53.2158,166.9032,91.3307,268.7808,3.9509e-05,3.41e-06,0.0,0 STARLINK-3892,1 52488U 22049AP  23178.36505628  .00000341  00000-0  39509-4 0  9998,2 52488  53.2158 166.9032 0001070  91.3307 268.7808 15.08841558 63510,6917.876,95.437,540.481,539.0,0.0
52488.0,STARLINK-3892,PAYLOAD,2023-06-28 03:50:18,15.08836607,0.0001049,53.216,163.3346,90.81,269.3013,2.11e-05,4.8e-07,0.0,0 STARLINK-3892,1 52488U 22049AP  23179.15994035  .00000048  00000-0  21100-4 0  9992,2 52488  53.2160 163.3346 0001049  90.8100 269.3013 15.08836607 63630,6917.891,95.438,540.481,539.03,0.0
52488.0,STARLINK-3892,PAYLOAD,2023-06-29 05:16:28,15.08842018,0.0001084,53.2162,158.5764,92.5295,267.5822,6.0887e-05,6.81e-06,0.0,0 STARLINK-3892,1 52488U 22049AP  23180.21977589  .00000681  00000-0  60887-4 0  9994,2 52488  53.2162 158.5764 0001084  92.5295 267.5822 15.08842018 63793,6917.874,95.437,540.489,538.989,0.0
52488.0,STARLINK-3892,PAYLOAD,2023-06-29 17:59:34,15.08836305,0.0001084,53.216,156.1983,88.5081,271.6036,4.2009e-05,3.81e-06,0.0,0 STARLINK-3892,1 52488U 22049AP  23180.74970020  .00000381  00000-0  42009-4 0  9998,2 52488  53.2160 156.1983 0001084  88.5081 271.6036 15.08836305 63870,6917.892,95.438,540.507,539.007,0.0
52488.0,STARLINK-3892,PAYLOAD,2023-07-01 01:47:17,15.0883483,0.0001087,53.2161,150.2517,90.6213,269.4904,-2.5669e-05,-6.96e-06,0.0,0 STARLINK-3892,1 52488U 22049AP  23182.07450498 -.00000696  00000-0 -25669-4 0  9992,2 52488  53.2161 150.2517 0001087  90.6213 269.4904 15.08834830 64076,6917.896,95.438,540.513,539.009,0.0
52488.0,STARLINK-3892,PAYLOAD,2023-07-02 04:48:50,15.0883416,0.0001079,53.2163,145.1971,90.6507,269.4609,-1.0296e-06,-3.04e-06,0.0,0 STARLINK-3892,1 52488U 22049AP  23183.20058823 -.00000304  00000-0 -10296-5 0  9991,2 52488  53.2163 145.1971 0001079  90.6507 269.4609 15.08834160 64249,6917.898,95.438,540.51,539.017,0.0
52488.0,STARLINK-3892,PAYLOAD,2023-07-03 04:39:37,15.08839974,0.0001066,53.2165,140.7366,92.8092,267.3022,0.00010306,1.353e-05,0.0,0 STARLINK-3892,1 52488U 22049AP  23184.19418364  .00001353  00000-0  10306-3 0  9993,2 52488  53.2165 140.7366 0001066  92.8092 267.3022 15.08839974 64399,6917.88,95.438,540.483,539.008,0.0
52488.0,STARLINK-3892,PAYLOAD,2023-07-04 02:55:01,15.08836455,0.0001073,53.2164,136.5734,87.5056,272.6059,4.5188e-05,4.31e-06,0.0,0 STARLINK-3892,1 52488U 22049AP  23185.12154915  .00000431  00000-0  45188-4 0  9999,2 52488  53.2164 136.5734 0001073  87.5056 272.6059 15.08836455 64535,6917.891,95.438,540.499,539.014,0.0
52488.0,STARLINK-3892,PAYLOAD,2023-07-05 01:10:25,15.08844003,0.0001145,53.2162,132.4101,85.8082,274.3041,3.4005e-05,2.53e-06,0.0,0 STARLINK-3892,1 52488U 22049AP  23186.04890469  .00000253  00000-0  34005-4 0  9990,2 52488  53.2162 132.4101 0001145  85.8082 274.3041 15.08844003 64679,6917.868,95.437,540.525,538.941,0.0
52488.0,STARLINK-3892,PAYLOAD,2023-07-06 02:36:36,15.08826886,0.0001141,53.2162,127.6528,84.1425,275.9697,-3.0835e-05,-7.78e-06,0.0,0 STARLINK-3892,1 52488U 22049AP  23187.10875774 -.00000778  00000-0 -30835-4 0  9991,2 52488  53.2162 127.6528 0001141  84.1425 275.9697 15.08826886 64838,6917.92,95.438,540.575,538.996,0.0
52488.0,STARLINK-3892,PAYLOAD,2023-07-07 05:38:10,15.08831015,0.0001452,53.2162,122.5971,81.5375,278.5782,-5.8705e-05,-1.222e-05,0.0,0 STARLINK-3892,1 52488U 22049AP  23188.23484533 -.00001222  00000-0 -58705-4 0  9996,2 52488  53.2162 122.5971 0001452  81.5375 278.5782 15.08831015 65008,6917.908,95.438,540.777,538.768,0.0
52488.0,STARLINK-3892,PAYLOAD,2023-07-07 23:07:23,15.08845416,0.000119,53.2165,119.3279,73.1901,286.9222,0.00019146,2.761e-05,0.0,0 STARLINK-3892,1 52488U 22049AP  23188.96346735  .00002761  00000-0  19146-3 0  9999,2 52488  53.2165 119.3279 0001190  73.1901 286.9222 15.08845416 65111,6917.864,95.437,540.552,538.906,0.0
52488.0,STARLINK-3892,PAYLOAD,2023-07-08 05:28:55,15.08850576,0.0001385,53.2168,118.1365,80.9009,279.214,0.00031784,4.776e-05,0.0,0 STARLINK-3892,1 52488U 22049AP  23189.22841982  .00004776  00000-0  31784-3 0  9993,2 52488  53.2168 118.1365 0001385  80.9009 279.2140 15.08850576 65159,6917.848,95.437,540.671,538.755,0.0
52488.0,STARLINK-3892,PAYLOAD,2023-07-08 11:50:30,15.08811717,0.0001961,53.2175,116.9445,76.6898,283.4313,0.00041364,6.296e-05,0.0,0 STARLINK-3892,1 52488U 22049AP  23189.49340480  .00006296  00000-0  41364-3 0  9993,2 52488  53.2175 116.9445 0001961  76.6898 283.4313 15.08811717 65197,6917.967,95.439,541.188,538.475,0.0
52488.0,STARLINK-3892,PAYLOAD,2023-07-09 03:44:21,15.08839019,0.0001331,53.2179,113.9753,90.2484,269.866,-5.2653e-05,-1.126e-05,0.0,0 STARLINK-3892,1 52488U 22049AP  23190.15580345 -.00001126  00000-0 -52653-4 0  9997,2 52488  53.2179 113.9753 0001331  90.2484 269.8660 15.08839019 65293,6917.883,95.438,540.669,538.828,0.0
52488.0,STARLINK-3892,PAYLOAD,2023-07-10 03:35:07,15.08850638,0.0001245,53.2177,109.5138,93.1769,266.9366,-7.4825e-05,-1.479e-05,0.0,0 STARLINK-3892,1 52488U 22049AP  23191.14939535 -.00001479  00000-0 -74825-4 0  9992,2 52488  53.2177 109.5138 0001245  93.1769 266.9366 15.08850638 65449,6917.848,95.437,540.574,538.852,0.0
52488.0,STARLINK-3892,PAYLOAD,2023-07-10 19:28:59,15.08835068,0.0001169,53.2176,106.54,91.5423,268.5703,0.0001322,1.816e-05,0.0,0 STARLINK-3892,1 52488U 22049AP  23191.81179873  .00001816  00000-0  13220-3 0  9991,2 52488  53.2176 106.5400 0001169  91.5423 268.5703 15.08835068 65545,6917.895,95.438,540.569,538.952,0.0
52488.0,STARLINK-3892,PAYLOAD,2023-07-11 03:25:54,15.08842693,0.000113,53.2174,105.0529,89.7444,270.3678,0.00012342,1.677e-05,0.0,0 STARLINK-3892,1 52488U 22049AP  23192.14299503  .00001677  00000-0  12342-3 0  9990,2 52488  53.2174 105.0529 0001130  89.7444 270.3678 15.08842693 65598,6917.872,95.437,540.519,538.955,0.0
52488.0,STARLINK-3892,PAYLOAD,2023-07-12 11:13:37,15.08843532,0.0001026,53.217,99.1043,95.5838,264.5271,5.1892e-05,5.38e-06,0.0,0 STARLINK-3892,1 52488U 22049AP  23193.46779599  .00000538  00000-0  51892-4 0  9993,2 52488  53.2170  99.1043 0001026  95.5838 264.5271 15.08843532 65793,6917.87,95.437,540.444,539.025,0.0
52488.0,STARLINK-3892,PAYLOAD,2023-07-13 23:47:29,15.08843168,0.0001298,53.2187,92.2632,98.1801,261.9338,5.9681e-05,6.62e-06,0.0,0 STARLINK-3892,1 52488U 22049AP  23194.99131600  .00000662  00000-0  59681-4 0  9999,2 52488  53.2187  92.2632 0001298  98.1801 261.9338 15.08843168 66026,6917.871,95.437,540.634,538.838,0.0
52488.0,STARLINK-3892,PAYLOAD,2023-07-16 02:39:50,15.08840442,0.0001167,53.2172,82.749,85.6831,274.4294,3.1938e-05,2.21e-06,0.0,0 STARLINK-3892,1 52488U 22049AP  23197.11099966  .00000221  00000-0  31938-4 0  9990,2 52488  53.2172  82.7490 0001167  85.6831 274.4294 15.08840442 66342,6917.879,95.438,540.551,538.937,0.0
52488.0,STARLINK-3892,PAYLOAD,2023-07-16 23:19:51,15.08838283,0.0001172,53.2178,78.8882,109.2566,250.8553,-4.4574e-05,-9.97e-06,0.0,0 STARLINK-3892,1 52488U 22049AP  23197.97212566 -.00000997  00000-0 -44574-4 0  9999,2 52488  53.2178  78.8882 0001172 109.2566 250.8553 15.08838283 66473,6917.886,95.438,540.561,538.94,0.0
52488.0,STARLINK-3892,PAYLOAD,2023-07-17 08:52:09,15.0884506,0.0001074,53.2178,77.1015,98.4195,261.6919,5.8698e-06,-1.94e-06,0.0,0 STARLINK-3892,1 52488U 22049AP  23198.36956000 -.00000194  00000-0  58698-5 0  9992,2 52488  53.2178  77.1015 0001074  98.4195 261.6919 15.08845060 66535,6917.865,95.437,540.473,538.987,0.0
52488.0,STARLINK-3892,PAYLOAD,2023-07-18 00:46:00,15.08850154,0.0001089,53.2181,74.1282,102.0973,258.0142,0.00014656,2.046e-05,0.0,0 STARLINK-3892,1 52488U 22049AP  23199.03195441  .00002046  00000-0  14656-3 0  9992,2 52488  53.2181  74.1282 0001089 102.0973 258.0142 15.08850154 66633,6917.849,95.437,540.468,538.961,0.0
52488.0,STARLINK-3892,PAYLOAD,2023-07-18 19:50:39,15.08836395,0.0001258,53.2177,70.56,96.3935,263.7201,0.00010006,1.305e-05,0.0,0 STARLINK-3892,1 52488U 22049AP  23199.82684579  .00001305  00000-0  10006-3 0  9996,2 52488  53.2177  70.5600 0001258  96.3935 263.7201 15.08836395 66756,6917.891,95.438,540.627,538.886,0.0
52488.0,STARLINK-3892,PAYLOAD,2023-07-19 18:06:03,15.08834213,0.0001272,53.217,66.3978,86.7055,273.4083,-1.1692e-05,-4.74e-06,0.0,0 STARLINK-3892,1 52488U 22049AP  23200.75421280 -.00000474  00000-0 -11692-4 0  9990,2 52488  53.2170  66.3978 0001272  86.7055 273.4083 15.08834213 66890,6917.898,95.438,540.643,538.883,0.0
